[{"OBJECT_NAME":"KSM1-B","OBJECT_ID":"2020-081K","EPOCH":"2026-03-09T23:03:07.817760","MEAN_MOTION":15.22983333,"ECCENTRICITY":0.00044009,"INCLINATION":36.9029,"RA_OF_ASC_NODE":318.3288,"ARG_OF_PERICENTER":174.9385,"MEAN_ANOMALY":185.1408,"EPHEMERIS_TYPE":0,"CLASSIFICATION_TYPE":"U","NORAD_CAT_ID":46914,"ELEMENT_SET_NO":999,"REV_AT_EPOCH":29704,"BSTAR":0.00033094478,"MEAN_MOTION_DOT":7.872e-5,"MEAN_MOTION_DDOT":0},{"OBJECT_NAME":"DELTA 1 DEB","OBJECT_ID":"1977-065AM","EPOCH":"2026-03-09T22:03:01.031616","MEAN_MOTION":14.51643532,"ECCENTRICITY":0.03229519,"INCLINATION":28.9328,"RA_OF_ASC_NODE":276.015,"ARG_OF_PERICENTER":66.8309,"MEAN_ANOMALY":296.5959,"EPHEMERIS_TYPE":0,"CLASSIFICATION_TYPE":"U","NORAD_CAT_ID":10208,"ELEMENT_SET_NO":999,"REV_AT_EPOCH":43123,"BSTAR":0.0021583786,"MEAN_MOTION_DOT":0.00017761,"MEAN_MOTION_DDOT":0}]
